NORAD_CAT_ID,OBJECT_NAME,OBJECT_TYPE,EPOCH,MEAN_MOTION,ECCENTRICITY,INCLINATION,RA_OF_ASC_NODE,ARG_OF_PERICENTER,MEAN_ANOMALY,BSTAR,MEAN_MOTION_DOT,MEAN_MOTION_DDOT,TLE_LINE0,TLE_LINE1,TLE_LINE2,SEMIMAJOR_AXIS,PERIOD,APOGEE,PERIGEE,DECAYED
52994.0,STARLINK-4256,PAYLOAD,2023-06-04 09:36:39,15.08848834,0.0001164,53.2158,304.9951,77.6153,282.4969,0.00021165,3.083e-05,0.0,0 STARLINK-4256,1 52994U 22076J   23155.40045948  .00003083  00000-0  21165-3 0  9998,2 52994  53.2158 304.9951 0001164  77.6153 282.4969 15.08848834 50944,6917.853,95.437,540.524,538.913,0.0
52994.0,STARLINK-4256,PAYLOAD,2023-06-04 14:22:49,15.08848818,9.79e-05,53.2159,304.1029,76.8237,283.2865,0.00018515,2.661e-05,0.0,0 STARLINK-4256,1 52994U 22076J   23155.59917864  .00002661  00000-0  18515-3 0  9999,2 52994  53.2159 304.1029 0000979  76.8237 283.2865 15.08848818 50508,6917.853,95.437,540.396,539.041,0.0
52994.0,STARLINK-4256,PAYLOAD,2023-06-04 17:33:35,15.08853433,8.93e-05,53.2162,303.5079,89.9965,270.113,0.00024521,3.618e-05,0.0,0 STARLINK-4256,1 52994U 22076J   23155.73165603  .00003618  00000-0  24521-3 0  9998,2 52994  53.2162 303.5079 0000893  89.9965 270.1130 15.08853433 50529,6917.839,95.437,540.322,539.087,0.0
52994.0,STARLINK-4256,PAYLOAD,2023-06-05 12:38:12,15.08845324,0.000101,53.2165,299.9392,88.2088,271.9019,9.0603e-05,1.155e-05,0.0,0 STARLINK-4256,1 52994U 22076J   23156.52653676  .00001155  00000-0  90603-4 0  9997,2 52994  53.2165 299.9392 0001010  88.2088 271.9019 15.08845324 50646,6917.864,95.437,540.428,539.03,0.0
52994.0,STARLINK-4256,PAYLOAD,2023-06-05 15:48:58,15.08846463,9.2e-05,53.2159,299.345,89.6,270.5097,0.00010915,1.45e-05,0.0,0 STARLINK-4256,1 52994U 22076J   23156.65901560  .00001450  00000-0  10915-3 0  9994,2 52994  53.2159 299.3450 0000920  89.6000 270.5097 15.08846463 51137,6917.861,95.437,540.362,539.089,0.0
52994.0,STARLINK-4256,PAYLOAD,2023-06-06 09:18:13,15.08842363,9.04e-05,53.2161,296.0738,94.2681,265.8415,9.1666e-05,1.172e-05,0.0,0 STARLINK-4256,1 52994U 22076J   23157.38765692  .00001172  00000-0  91666-4 0  9993,2 52994  53.2161 296.0738 0000904  94.2681 265.8415 15.08842363 51240,6917.873,95.437,540.364,539.113,0.0
52994.0,STARLINK-4256,PAYLOAD,2023-06-06 12:28:59,15.08842887,8.09e-05,53.2165,295.4791,93.0089,267.0996,3.911e-05,3.35e-06,0.0,0 STARLINK-4256,1 52994U 22076J   23157.52013639  .00000335  00000-0  39110-4 0  9992,2 52994  53.2165 295.4791 0000809  93.0089 267.0996 15.08842887 50797,6917.872,95.437,540.296,539.177,0.0
52994.0,STARLINK-4256,PAYLOAD,2023-06-06 14:04:22,15.08844868,8.43e-05,53.2166,295.1816,95.159,264.9498,6.9968e-05,8.26e-06,0.0,0 STARLINK-4256,1 52994U 22076J   23157.58637517  .00000826  00000-0  69968-4 0  9994,2 52994  53.2166 295.1816 0000843  95.1590 264.9498 15.08844868 50807,6917.866,95.437,540.314,539.147,0.0
52994.0,STARLINK-4256,PAYLOAD,2023-06-07 09:09:00,15.08836598,9.42e-05,53.2163,291.6137,91.6176,268.4924,3.7016e-05,3.01e-06,0.0,0 STARLINK-4256,1 52994U 22076J   23158.38126013  .00000301  00000-0  37016-4 0  9994,2 52994  53.2163 291.6137 0000942  91.6176 268.4924 15.08836598 51391,6917.891,95.438,540.407,539.104,0.0
52994.0,STARLINK-4256,PAYLOAD,2023-06-07 18:41:19,15.08841598,0.0001269,53.2152,289.8286,97.0144,263.0993,-3.3591e-05,-8.22e-06,0.0,0 STARLINK-4256,1 52994U 22076J   23158.77869825 -.00000822  00000-0 -33591-4 0  9996,2 52994  53.2152 289.8286 0001269  97.0144 263.0993 15.08841598 50988,6917.876,95.437,540.618,538.863,0.0
52994.0,STARLINK-4256,PAYLOAD,2023-06-08 12:10:33,15.08842295,0.0001177,53.2155,286.5562,100.0612,260.0513,7.1769e-05,8.55e-06,0.0,0 STARLINK-4256,1 52994U 22076J   23159.50733761  .00000855  00000-0  71769-4 0  9990,2 52994  53.2155 286.5562 0001177 100.0612 260.0513 15.08842295 51098,6917.873,95.437,540.553,538.924,0.0
52994.0,STARLINK-4256,PAYLOAD,2023-06-09 08:50:35,15.08833195,9.49e-05,53.2154,282.6929,94.8993,265.2108,6.3333e-05,7.2e-06,0.0,0 STARLINK-4256,1 52994U 22076J   23160.36846587  .00000720  00000-0  63333-4 0  9996,2 52994  53.2154 282.6929 0000949  94.8993 265.2108 15.08833195 51691,6917.901,95.438,540.423,539.11,0.0
52994.0,STARLINK-4256,PAYLOAD,2023-06-10 00:44:26,15.08839026,9.2e-05,53.215,279.7205,84.5347,275.575,0.00010324,1.356e-05,0.0,0 STARLINK-4256,1 52994U 22076J   23161.03086163  .00001356  00000-0  10324-3 0  9994,2 52994  53.2150 279.7205 0000920  84.5347 275.5750 15.08839026 51796,6917.883,95.438,540.385,539.112,0.0
52994.0,STARLINK-4256,PAYLOAD,2023-06-10 08:41:22,15.08837281,0.0001011,53.216,278.2347,95.4181,264.6927,1.3315e-05,-7.6e-07,0.0,0 STARLINK-4256,1 52994U 22076J   23161.36206337 -.00000076  00000-0  13315-4 0  9990,2 52994  53.2160 278.2347 0001011  95.4181 264.6927 15.08837281 51377,6917.889,95.438,540.453,539.054,0.0
52994.0,STARLINK-4256,PAYLOAD,2023-06-10 15:02:54,15.08843482,0.0001062,53.2163,277.0465,100.0495,260.0617,0.00011039,1.47e-05,0.0,0 STARLINK-4256,1 52994U 22076J   23161.62702080  .00001470  00000-0  11039-3 0  9993,2 52994  53.2163 277.0465 0001062 100.0495 260.0617 15.08843482 51416,6917.87,95.437,540.469,539.0,0.0
52994.0,STARLINK-4256,PAYLOAD,2023-06-11 08:32:09,15.0883797,0.0001055,53.217,273.7732,84.7686,275.3427,2.807e-05,1.59e-06,0.0,0 STARLINK-4256,1 52994U 22076J   23162.35566428  .00000159  00000-0  28070-4 0  9995,2 52994  53.2170 273.7732 0001055  84.7686 275.3427 15.08837970 51992,6917.887,95.438,540.481,539.022,0.0
52994.0,STARLINK-4256,PAYLOAD,2023-06-11 16:29:04,15.08843223,0.0001231,53.2169,272.2851,79.6769,280.4362,0.0001139,1.525e-05,0.0,0 STARLINK-4256,1 52994U 22076J   23162.68686216  .00001525  00000-0  11390-3 0  9993,2 52994  53.2169 272.2851 0001231  79.6769 280.4362 15.08843223 51574,6917.871,95.437,540.587,538.884,0.0
52994.0,STARLINK-4256,PAYLOAD,2023-06-12 13:09:06,15.08837014,0.000114,53.2172,268.4205,85.658,274.4542,5.7789e-05,6.32e-06,0.0,0 STARLINK-4256,1 52994U 22076J   23163.54798654  .00000632  00000-0  57789-4 0  9990,2 52994  53.2172 268.4205 0001140  85.6580 274.4542 15.08837014 51704,6917.89,95.438,540.543,538.966,0.0
52994.0,STARLINK-4256,PAYLOAD,2023-06-13 09:49:06,15.08837032,0.000103,53.2167,264.5544,81.6614,278.4495,9.8018e-05,1.272e-05,0.0,0 STARLINK-4256,1 52994U 22076J   23164.40910805  .00001272  00000-0  98018-4 0  9991,2 52994  53.2167 264.5544 0001030  81.6614 278.4495 15.08837032 51838,6917.889,95.438,540.467,539.042,0.0
52994.0,STARLINK-4256,PAYLOAD,2023-06-14 00:07:34,15.08846803,0.0001002,53.2166,261.8786,85.0897,275.0209,7.7214e-05,9.42e-06,0.0,0 STARLINK-4256,1 52994U 22076J   23165.00526146  .00000942  00000-0  77214-4 0  9997,2 52994  53.2166 261.8786 0001002  85.0897 275.0209 15.08846803 52399,6917.86,95.437,540.418,539.031,0.0
52994.0,STARLINK-4256,PAYLOAD,2023-06-14 09:39:53,15.08835524,8.41e-05,53.2164,260.0942,94.8686,265.2402,0.00016404,2.324e-05,0.0,0 STARLINK-4256,1 52994U 22076J   23165.40270669  .00002324  00000-0  16404-3 0  9996,2 52994  53.2164 260.0942 0000841  94.8686 265.2402 15.08835524 52457,6917.894,95.438,540.341,539.177,0.0
52994.0,STARLINK-4256,PAYLOAD,2023-06-14 16:01:25,15.08850946,0.0001129,53.2165,258.9037,109.6363,250.4751,5.3086e-05,5.57e-06,0.0,0 STARLINK-4256,1 52994U 22076J   23165.66765801  .00000557  00000-0  53086-4 0  9995,2 52994  53.2165 258.9037 0001129 109.6363 250.4751 15.08850946 52498,6917.847,95.437,540.493,538.931,0.0
52994.0,STARLINK-4256,PAYLOAD,2023-06-15 11:06:04,15.08839841,0.00013,53.2169,255.3318,124.1025,236.0091,2.4105e-05,9.6e-07,0.0,0 STARLINK-4256,1 52994U 22076J   23166.46254648  .00000096  00000-0  24105-4 0  9994,2 52994  53.2169 255.3318 0001300 124.1025 236.0091 15.08839841 52615,6917.881,95.438,540.645,538.847,0.0
52994.0,STARLINK-4256,PAYLOAD,2023-06-15 12:41:27,15.08840542,0.000135,53.2169,255.0341,128.1185,231.9929,1.6364e-05,-2.7e-07,0.0,0 STARLINK-4256,1 52994U 22076J   23166.52878607 -.00000027  00000-0  16364-4 0  9991,2 52994  53.2169 255.0341 0001350 128.1185 231.9929 15.08840542 52157,6917.879,95.438,540.678,538.81,0.0
52994.0,STARLINK-4256,PAYLOAD,2023-06-16 09:21:27,15.08849387,0.0001058,53.2164,251.1724,97.0639,263.0473,0.0001434,1.996e-05,0.0,0 STARLINK-4256,1 52994U 22076J   23167.38989803  .00001996  00000-0  14340-3 0  9993,2 52994  53.2164 251.1724 0001058  97.0639 263.0473 15.08849387 52759,6917.852,95.437,540.449,538.985,0.0
52994.0,STARLINK-4256,PAYLOAD,2023-06-16 12:32:13,15.08854431,0.0001005,53.2161,250.5788,89.7818,270.3289,0.00019766,2.861e-05,0.0,0 STARLINK-4256,1 52994U 22076J   23167.52237385  .00002861  00000-0  19766-3 0  9999,2 52994  53.2161 250.5788 0001005  89.7818 270.3289 15.08854431 52301,6917.836,95.437,540.397,539.006,0.0
52994.0,STARLINK-4256,PAYLOAD,2023-06-16 22:04:32,15.08842801,0.0001141,53.2156,248.7943,87.2762,272.8361,0.00012973,1.778e-05,0.0,0 STARLINK-4256,1 52994U 22076J   23167.91982275  .00001778  00000-0  12973-3 0  9996,2 52994  53.2156 248.7943 0001141  87.2762 272.8361 15.08842801 52833,6917.872,95.437,540.526,538.947,0.0
52994.0,STARLINK-4256,PAYLOAD,2023-06-17 12:23:01,15.08823425,0.0001435,53.216,246.1174,96.8519,263.2636,0.00034855,5.261e-05,0.0,0 STARLINK-4256,1 52994U 22076J   23168.51599355  .00005261  00000-0  34855-3 0  9990,2 52994  53.2160 246.1174 0001435  96.8519 263.2636 15.08823425 52456,6917.931,95.439,540.789,538.803,0.0
52994.0,STARLINK-4256,PAYLOAD,2023-06-17 21:55:20,15.08834696,0.0001083,53.2163,244.3344,102.945,257.1663,-3.0265e-05,-7.69e-06,0.0,0 STARLINK-4256,1 52994U 22076J   23168.91342874 -.00000769  00000-0 -30265-4 0  9998,2 52994  53.2163 244.3344 0001083 102.9450 257.1663 15.08834696 52982,6917.897,95.438,540.511,539.012,0.0
52994.0,STARLINK-4256,PAYLOAD,2023-06-18 15:24:35,15.08833476,0.0001026,53.2155,241.0631,100.2612,259.8496,-8.7133e-05,-1.674e-05,0.0,0 STARLINK-4256,1 52994U 22076J   23169.64207279 -.00001674  00000-0 -87133-4 0  9990,2 52994  53.2155 241.0631 0001026 100.2612 259.8496 15.08833476 52623,6917.9,95.438,540.475,539.056,0.0
